[{"OBJECT_NAME":"ZHEDA PIXING 1B","OBJECT_ID":"2010-047B","EPOCH":"2026-03-09T21:53:02.003136","MEAN_MOTION":14.90822357,"ECCENTRICITY":0.0017982,"INCLINATION":97.9405,"RA_OF_ASC_NODE":46.4307,"ARG_OF_PERICENTER":246.9995,"MEAN_ANOMALY":112.9326,"EPHEMERIS_TYPE":0,"CLASSIFICATION_TYPE":"U","NORAD_CAT_ID":37166,"ELEMENT_SET_NO":999,"REV_AT_EPOCH":83562,"BSTAR":0.00029479,"MEAN_MOTION_DOT":2.852e-5,"MEAN_MOTION_DDOT":0},{"OBJECT_NAME":"COSMOS 2251 DEB","OBJECT_ID":"1993-036AFJ","EPOCH":"2026-03-09T19:12:37.952064","MEAN_MOTION":14.81127427,"ECCENTRICITY":0.00455376,"INCLINATION":74.0373,"RA_OF_ASC_NODE":95.7411,"ARG_OF_PERICENTER":157.0077,"MEAN_ANOMALY":203.3152,"EPHEMERIS_TYPE":0,"CLASSIFICATION_TYPE":"U","NORAD_CAT_ID":34979,"ELEMENT_SET_NO":999,"REV_AT_EPOCH":89508,"BSTAR":0.00092671937,"MEAN_MOTION_DOT":7.304e-5,"MEAN_MOTION_DDOT":0}]
